{"spkid": "20413577", "covariance": {"labels": ["e", "q", "tp", "node", "peri", "i", "A2"], "data": [["1.838579694958622E-15", "-1.700825179038901E-15", "-5.308299365489125E-14", "2.542322332270039E-14", "7.315640888024985E-14", "-2.650876293323609E-14", "8.387270169677419E-23"], ["-1.700825179038901E-15", "1.573886949705759E-15", "5.058281540680223E-14", "-2.377827544162084E-14", "-6.741897132657855E-14", "2.471560846917804E-14", "-7.554460839336144E-23"], ["-5.308299365489125E-14", "5.058281540680223E-14", "6.202227645589547E-12", "-1.758609544103193E-12", "-1.021641390337274E-12", "1.248951004389608E-12", "2.461719338689243E-21"], ["2.542322332270039E-14", "-2.377827544162084E-14", "-1.758609544103193E-12", "9.787438724250931E-12", "-1.01843804372775E-11", "-5.698903085476821E-12", "-2.847263323809189E-21"], ["7.315640888024985E-14", "-6.741897132657855E-14", "-1.021641390337274E-12", "-1.01843804372775E-11", "1.632472900439252E-11", "4.625562658854953E-12", "8.028912183852894E-21"], ["-2.650876293323609E-14", "2.471560846917804E-14", "1.248951004389608E-12", "-5.698903085476821E-12", "4.625562658854953E-12", "1.926998352413513E-11", "9.297646678300352E-22"], ["8.387270169677419E-23", "-7.554460839336144E-23", "2.461719338689243E-21", "-2.847263323809189E-21", "8.028912183852894E-21", "9.297646678300352E-22", "2.048616860811214E-29"]], "elements": [{"name": "e", "sigma": 4.28786624669966e-08, "units": null, "title": "eccentricity", "value": ".5697576102004382", "label": "e"}, {"name": "q", "sigma": 3.96722440719675e-08, "units": "au", "value": ".4028186131194115", "title": "perihelion distance", "label": "q"}, {"units": "TDB", "value": "2458396.672698895301", "title": "time of perihelion passage", "sigma": 2.49042720142339e-06, "name": "tp", "label": "tp"}, {"units": "deg", "title": "longitude of the ascending node", "value": "58.91094828074291", "name": "om", "sigma": 3.12848824901915e-06, "label": "node"}, {"units": "deg", "value": "127.7542617434184", "title": "argument of perihelion", "sigma": 4.04038723446064e-06, "name": "w", "label": "peri"}, {"title": "inclination", "value": "14.31803859842464", "units": "deg", "name": "i", "sigma": 4.38975893690475e-06, "label": "i"}], "epoch": "2458486.5"}, "elements": [{"sigma": "4.2974E-8", "name": "e", "title": "eccentricity", "value": ".5697333629499755", "units": null, "label": "e"}, {"name": "a", "sigma": "3.5878E-9", "units": "au", "value": ".936183111323679", "title": "semi-major axis", "label": "a"}, {"units": "au", "title": "perihelion distance", "value": ".4028083589722681", "sigma": "3.943E-8", "name": "q", "label": "q"}, {"units": "deg", "title": "inclination; angle with respect to x-y ecliptic plane", "value": "14.32036858809283", "sigma": "4.3908E-6", "name": "i", "label": "i"}, {"label": "node", "units": "deg", "value": "58.85723735458274", "title": "longitude of the ascending node", "sigma": "3.1245E-6", "name": "om"}, {"label": "peri", "value": "127.8038745029322", "title": "argument of perihelion", "units": "deg", "name": "w", "sigma": "4.0484E-6"}, {"title": "mean anomaly", "value": "170.4308925120714", "units": "deg", "sigma": "1.462E-5", "name": "ma", "label": "M"}, {"label": "tp", "units": "TDB", "title": "time of perihelion passage", "value": "2461043.866213153328", "name": "tp", "sigma": "1.2568E-5"}, {"units": "d", "value": "330.8564687637726", "title": "sidereal orbital period", "name": "per", "sigma": "1.902E-6", "label": "period"}, {"label": "n", "units": "deg/d", "title": "mean motion", "value": "1.088085118435558", "name": "n", "sigma": "6.2549E-9"}, {"label": "Q", "value": "1.46955786367509", "title": "aphelion distance", "units": "au", "name": "ad", "sigma": "5.6319E-9"}], "epoch": "2461200.5"}